ONEWEB-0098             
1 45442U 20020U   25087.31420339 -.00000507  00000+0 -14667-2 0  9999
2 45442  87.8800 109.9448 0001792  86.4773 273.6560 13.11416022244203
ONEWEB-0055             
1 45443U 20020V   25087.29973370 -.00000026  00000+0 -11060-3 0  9996
2 45443  87.8802 109.9511 0001937  91.8677 268.2672 13.11413366244179
ONEWEB-0093             
1 45444U 20020W   25087.35159967  .00000492  00000+0  13510-2 0  9998
2 45444  87.8802 109.9239 0002161  87.8742 272.2633 13.11415828244240
ONEWEB-0029             
1 45445U 20020X   25087.29381024  .00000212  00000+0  56270-3 0  9994
2 45445  87.8803 109.9491 0002185  93.4696 266.6682 13.11415429244214
ONEWEB-0046             
1 45447U 20020Z   25087.41927134  .00000230  00000+0  61332-3 0  9993
2 45447  87.8802 109.9215 0002100 100.3756 259.7608 13.11416884244184
ONEWEB-0019             
1 45449U 20020AB  25087.42267509  .00000339  00000+0  91948-3 0  9995
2 45449  87.8807 109.9340 0001744  87.4189 272.7139 13.11419166244111
